CCSDS_OEM_VERS = 1.0
CREATION_DATE  = 2017-05-11T12:06:44
ORIGINATOR     = GMAT USER

META_START
OBJECT_NAME          = MOPSSat_alt_35785_km_RAAN_270_153
OBJECT_ID            = SatId
CENTER_NAME          = Earth
REF_FRAME            = EME2000
TIME_SYSTEM          = UTC
START_TIME           = 2017-01-01T00:00:00.000
USEABLE_START_TIME   = 2017-01-01T00:00:00.000
USEABLE_STOP_TIME    = 2017-01-02T00:00:00.000
STOP_TIME            = 2017-01-02T00:00:00.000
INTERPOLATION        = Lagrange
INTERPOLATION_DEGREE = 7 
META_STOP


                                                                                   

2017-01-01T11:18:20.000   4.184450218666494e+03   6.294695188014814e+04   7.314920533440446e+01  -1.767761332758170e+00   2.359267097001875e-01  -3.078465362358675e-02
2017-01-01T11:18:30.000   4.166772273526224e+03   6.294930615068472e+04   7.284135324183644e+01  -1.767827701792837e+00   2.349274079178875e-01  -3.078576500182693e-02
2017-01-01T11:18:40.000   4.149093666007162e+03   6.295165042831152e+04   7.253349005836591e+01  -1.767893786479013e+00   2.339281247468750e-01  -3.078687142031571e-02
2017-01-01T11:18:50.000   4.131414398905942e+03   6.295398471322006e+04   7.222561583277452e+01  -1.767959586853634e+00   2.329288601058229e-01  -3.078797287971210e-02
2017-01-01T11:19:00.000   4.113734475058419e+03   6.295630900559599e+04   7.191773061452653e+01  -1.768025102953337e+00   2.319296139156427e-01  -3.078906938066989e-02
2017-01-01T11:19:10.000   4.096053897287647e+03   6.295862330562565e+04   7.160983445286340e+01  -1.768090334814634e+00   2.309303860965451e-01  -3.079016092384079e-02
2017-01-01T11:19:20.000   4.078372668636921e+03   6.296092761346648e+04   7.130192740086157e+01  -1.768155282473093e+00   2.299311765812053e-01  -3.079124750986048e-02
2017-01-01T11:19:30.000   4.060690792087391e+03   6.296322192928317e+04   7.099400951051520e+01  -1.768219945964340e+00   2.289319852988089e-01  -3.079232913936564e-02
2017-01-01T11:19:40.000   4.043008270663073e+03   6.296550625323398e+04   7.068608083456482e+01  -1.768284325323685e+00   2.279328121809855e-01  -3.079340581298746e-02
2017-01-01T11:19:50.000   4.025325107024119e+03   6.296778058552343e+04   7.037814141941418e+01  -1.768348420587609e+00   2.269336571388245e-01  -3.079447753137661e-02
2017-01-01T11:20:00.000   4.007641303872507e+03   6.297004492634988e+04   7.007019131219540e+01  -1.768412231792273e+00   2.259345200858010e-01  -3.079554429517833e-02
2017-01-01T11:20:10.000   3.989956863860142e+03   6.297229927591738e+04   6.976223055916840e+01  -1.768475758973865e+00   2.249354009325811e-01  -3.079660610503821e-02
2017-01-01T11:20:20.000   3.972271789817791e+03   6.297454363440521e+04   6.945425920970779e+01  -1.768539002167736e+00   2.239362995999633e-01  -3.079766296158769e-02
2017-01-01T11:20:30.000   3.954586084585145e+03   6.297677800199101e+04   6.914627731334326e+01  -1.768601961409054e+00   2.229372160092703e-01  -3.079871486545502e-02
2017-01-01T11:20:40.000   3.936899751010777e+03   6.297900237885013e+04   6.883828491975918e+01  -1.768664636732785e+00   2.219381500823487e-01  -3.079976181726501e-02
2017-01-01T11:20:50.000   3.919212792122287e+03   6.298121676513565e+04   6.853028208175733e+01  -1.768727028173129e+00   2.209391017511741e-01  -3.080080381762951e-02
2017-01-01T11:21:00.000   3.901525210897180e+03   6.298342116100591e+04   6.822226885126678e+01  -1.768789135764296e+00   2.199400709449134e-01  -3.080184086716055e-02
2017-01-01T11:21:10.000   3.883837010353097e+03   6.298561556661344e+04   6.791424528091558e+01  -1.768850959540197e+00   2.189410575950222e-01  -3.080287296646489e-02
2017-01-01T11:21:20.000   3.866148193148685e+03   6.298779998215460e+04   6.760621141708002e+01  -1.768912499535839e+00   2.179420616126998e-01  -3.080390011616754e-02
2017-01-01T11:21:30.000   3.848458761982737e+03   6.298997440781991e+04   6.729816730683528e+01  -1.768973755785925e+00   2.169430829114340e-01  -3.080492231688841e-02
2017-01-01T11:21:40.000   3.830768719503964e+03   6.299213884380536e+04   6.699011299638427e+01  -1.769034728325180e+00   2.159441214019038e-01  -3.080593956924751e-02
2017-01-01T11:21:50.000   3.813078068540016e+03   6.299429329028315e+04   6.668204853504588e+01  -1.769095417187517e+00   2.149451770049194e-01  -3.080695187385126e-02
2017-01-01T11:22:00.000   3.795386811927484e+03   6.299643774742384e+04   6.637397397229446e+01  -1.769155822406665e+00   2.139462496418146e-01  -3.080795923130287e-02
2017-01-01T11:22:10.000   3.777694952511858e+03   6.299857221539569e+04   6.606588935775926e+01  -1.769215944016155e+00   2.129473392344474e-01  -3.080896164220213e-02
2017-01-01T11:22:20.000   3.760002493317729e+03   6.300069669434572e+04   6.575779474418806e+01  -1.769275782048779e+00   2.119484457148028e-01  -3.080995910713640e-02
2017-01-01T11:22:30.000   3.742309437319577e+03   6.300281118442587e+04   6.544969018345594e+01  -1.769335336537332e+00   2.109495690120579e-01  -3.081095162669297e-02
2017-01-01T11:22:40.000   3.724615787532064e+03   6.300491568578251e+04   6.514157572813755e+01  -1.769394607514313e+00   2.099507090576778e-01  -3.081193920145412e-02
2017-01-01T11:22:50.000   3.706921546610745e+03   6.300701019860399e+04   6.483345142455393e+01  -1.769453595013271e+00   2.089518657628746e-01  -3.081292183201943e-02
2017-01-01T11:23:00.000   3.689226717251359e+03   6.300909472307304e+04   6.452531731972570e+01  -1.769512299067456e+00   2.079530390411483e-01  -3.081389951898340e-02
2017-01-01T11:23:10.000   3.671531302099554e+03   6.301116925937765e+04   6.421717345980109e+01  -1.769570719710129e+00   2.069542288031909e-01  -3.081487226294065e-02
2017-01-01T11:23:20.000   3.653835303979999e+03   6.301323380768288e+04   6.390901989404558e+01  -1.769628856973768e+00   2.059554349698234e-01  -3.081584006447257e-02
2017-01-01T11:23:30.000   3.636138725726308e+03   6.301528836815216e+04   6.360085667188030e+01  -1.769686710890670e+00   2.049566574623908e-01  -3.081680292415745e-02
2017-01-01T11:23:40.000   3.618441570181023e+03   6.301733294094681e+04   6.329268384288164e+01  -1.769744281492935e+00   2.039578962027617e-01  -3.081776084257011e-02
2017-01-01T11:23:50.000   3.600743840365839e+03   6.301936752620764e+04   6.298450145974564e+01  -1.769801568811950e+00   2.029591511229306e-01  -3.081871382027344e-02
2017-01-01T11:24:00.000   3.583045539252355e+03   6.302139212408027e+04   6.267630957429567e+01  -1.769858572879096e+00   2.019604221520845e-01  -3.081966185783016e-02
2017-01-01T11:24:10.000   3.565346669854083e+03   6.302340673470468e+04   6.236810823908490e+01  -1.769915293725465e+00   2.009617092217944e-01  -3.082060495579797e-02
2017-01-01T11:24:20.000   3.547647234820367e+03   6.302541135826161e+04   6.205989750032479e+01  -1.769971731383156e+00   1.999630122431009e-01  -3.082154311475120e-02
2017-01-01T11:24:30.000   3.529947236843503e+03   6.302740599492607e+04   6.175167740497466e+01  -1.770027885883969e+00   1.989643311294871e-01  -3.082247633525918e-02
2017-01-01T11:24:40.000   3.512246678553646e+03   6.302939064487934e+04   6.144344799891149e+01  -1.770083757259747e+00   1.979656657909483e-01  -3.082340461789169e-02
2017-01-01T11:24:50.000   3.494545562801382e+03   6.303136530827628e+04   6.113520933185075e+01  -1.770139345541452e+00   1.969670161499398e-01  -3.082432796320381e-02
2017-01-01T11:25:00.000   3.476843892424563e+03   6.303332998527242e+04   6.082696145328588e+01  -1.770194650759927e+00   1.959683821282158e-01  -3.082524637174854e-02
2017-01-01T11:25:10.000   3.459141670300350e+03   6.303528467601811e+04   6.051870441339467e+01  -1.770249672945733e+00   1.949697636497677e-01  -3.082615984407397e-02
2017-01-01T11:25:20.000   3.441438899331099e+03   6.303722938066054e+04   6.021043826279357e+01  -1.770304412129205e+00   1.939711606400242e-01  -3.082706838072443e-02
2017-01-01T11:25:30.000   3.423735582426710e+03   6.303916409934525e+04   5.990216305223016e+01  -1.770358868340497e+00   1.929725730248576e-01  -3.082797198224101e-02
2017-01-01T11:25:40.000   3.406031722498238e+03   6.304108883221685e+04   5.959387883247197e+01  -1.770413041609599e+00   1.919740007302238e-01  -3.082887064916206e-02
2017-01-01T11:25:50.000   3.388327322394611e+03   6.304300357942621e+04   5.928558565320454e+01  -1.770466931966543e+00   1.909754436785912e-01  -3.082976438202640e-02
2017-01-01T11:26:00.000   3.370622384944806e+03   6.304490834112557e+04   5.897728356376589e+01  -1.770520539441261e+00   1.899769017913208e-01  -3.083065318137112e-02
2017-01-01T11:26:10.000   3.352916912957869e+03   6.304680311746855e+04   5.866897261314666e+01  -1.770573864063587e+00   1.889783749886673e-01  -3.083153704773153e-02
2017-01-01T11:26:20.000   3.335210909180671e+03   6.304868790861414e+04   5.836065284925485e+01  -1.770626905863375e+00   1.879798631873986e-01  -3.083241598164313e-02
2017-01-01T11:26:30.000   3.317504376361249e+03   6.305056271472055e+04   5.805232432001847e+01  -1.770679664870312e+00   1.869813663043661e-01  -3.083328998363858e-02
2017-01-01T11:26:40.000   3.299797317255197e+03   6.305242753594428e+04   5.774398707349707e+01  -1.770732141113910e+00   1.859828842568647e-01  -3.083415905424738e-02
2017-01-01T11:26:50.000   3.282089734643270e+03   6.305428237243788e+04   5.743564115818810e+01  -1.770784334623427e+00   1.849844169636284e-01  -3.083502319399478e-02
2017-01-01T11:27:00.000   3.264381631345575e+03   6.305612722434900e+04   5.712728662327417e+01  -1.770836245427852e+00   1.839859643456269e-01  -3.083588240340140e-02
2017-01-01T11:27:10.000   3.246673010169480e+03   6.305796209182573e+04   5.681892351771589e+01  -1.770887873556046e+00   1.829875263231298e-01  -3.083673668298562e-02
2017-01-01T11:27:20.000   3.228963874143007e+03   6.305978697499321e+04   5.651055189431590e+01  -1.770939219036092e+00   1.819891028288615e-01  -3.083758603325283e-02
